NORAD_CAT_ID,OBJECT_NAME,OBJECT_TYPE,EPOCH,MEAN_MOTION,ECCENTRICITY,INCLINATION,RA_OF_ASC_NODE,ARG_OF_PERICENTER,MEAN_ANOMALY,BSTAR,MEAN_MOTION_DOT,MEAN_MOTION_DDOT,TLE_LINE0,TLE_LINE1,TLE_LINE2,SEMIMAJOR_AXIS,PERIOD,APOGEE,PERIGEE,DECAYED
55660.0,STARLINK-5467,PAYLOAD,2024-01-21 19:51:39,14.9832934,0.0002671,70.0018,325.9153,252.5496,107.5372,-3.1187e-05,-4.65e-06,0.0,0 STARLINK-5467,1 55660U 23021AJ  24021.82754568 -.00000465  00000-0 -31187-4 0  9995,2 55660  70.0018 325.9153 0002671 252.5496 107.5372 14.98329340 52462,6950.195,96.107,573.916,570.204,0.0
55660.0,STARLINK-5467,PAYLOAD,2024-01-21 21:27:48,14.98328443,0.0002652,70.0017,325.7465,255.7456,104.3408,-3.8725e-05,-5.55e-06,0.0,0 STARLINK-5467,1 55660U 23021AJ  24021.89430662 -.00000555  00000-0 -38725-4 0  9993,2 55660  70.0017 325.7465 0002652 255.7456 104.3408 14.98328443 52777,6950.198,96.107,573.906,570.22,0.0
55660.0,STARLINK-5467,PAYLOAD,2024-01-22 05:28:28,14.98337318,0.0002767,70.0015,324.9044,259.5418,100.543,-0.00016923,-2.112e-05,0.0,0 STARLINK-5467,1 55660U 23021AJ  24022.22810452 -.00002112  00000-0 -16923-3 0  9996,2 55660  70.0015 324.9044 0002767 259.5418 100.5430 14.98337318 52826,6950.17,96.107,573.958,570.112,0.0
55660.0,STARLINK-5467,PAYLOAD,2024-01-22 21:29:48,14.98325784,0.0002729,70.0012,323.2198,258.0798,102.0055,8.3392e-05,9.02e-06,0.0,0 STARLINK-5467,1 55660U 23021AJ  24022.89570503  .00000902  00000-0  83392-4 0  9997,2 55660  70.0012 323.2198 0002729 258.0798 102.0055 14.98325784 52923,6950.206,96.107,573.968,570.174,0.0
55660.0,STARLINK-5467,PAYLOAD,2024-01-23 03:54:21,14.98330225,0.0002657,70.0016,322.5483,253.3807,106.706,5.2943e-05,5.39e-06,0.0,0 STARLINK-5467,1 55660U 23021AJ  24023.16274337  .00000539  00000-0  52943-4 0  9998,2 55660  70.0016 322.5483 0002657 253.3807 106.7060 14.98330225 52669,6950.192,96.107,573.904,570.211,0.0
55660.0,STARLINK-5467,PAYLOAD,2024-01-23 05:30:28,14.9833224,0.000269,70.0014,322.3789,254.778,105.3081,8.6306e-05,9.37e-06,0.0,0 STARLINK-5467,1 55660U 23021AJ  24023.22950113  .00000937  00000-0  86306-4 0  9990,2 55660  70.0014 322.3789 0002690 254.7780 105.3081 14.98332240 52977,6950.186,96.107,573.921,570.181,0.0
55660.0,STARLINK-5467,PAYLOAD,2024-01-23 23:07:57,14.98329961,0.0002714,70.002,320.5293,253.7898,106.2962,5.8114e-05,6.01e-06,0.0,0 STARLINK-5467,1 55660U 23021AJ  24023.96386226  .00000601  00000-0  58114-4 0  9993,2 55660  70.0020 320.5293 0002714 253.7898 106.2962 14.98329961 53087,6950.193,96.107,573.944,570.172,0.0
55660.0,STARLINK-5467,PAYLOAD,2024-01-24 03:56:21,14.98332426,0.000256,70.0016,320.023,251.5755,108.5126,6.9098e-05,7.32e-06,0.0,0 STARLINK-5467,1 55660U 23021AJ  24024.16414056  .00000732  00000-0  69098-4 0  9997,2 55660  70.0016 320.0230 0002560 251.5755 108.5126 14.98332426 52812,6950.185,96.107,573.83,570.271,0.0
55660.0,STARLINK-5467,PAYLOAD,2024-01-24 05:32:29,14.98333308,0.0002554,70.0017,319.8549,251.392,108.6962,7.7787e-05,8.35e-06,0.0,0 STARLINK-5467,1 55660U 23021AJ  24024.23089967  .00000835  00000-0  77787-4 0  9992,2 55660  70.0017 319.8549 0002554 251.3920 108.6962 14.98333308 53121,6950.183,96.107,573.823,570.273,0.0
55660.0,STARLINK-5467,PAYLOAD,2024-01-24 21:33:50,14.98329275,0.0002461,70.0024,318.1742,238.9804,121.1113,-3.5559e-05,-5.17e-06,0.0,0 STARLINK-5467,1 55660U 23021AJ  24024.89850435 -.00000517  00000-0 -35559-4 0  9990,2 55660  70.0024 318.1742 0002461 238.9804 121.1113 14.98329275 53222,6950.195,96.107,573.771,570.35,0.0
55660.0,STARLINK-5467,PAYLOAD,2024-01-25 03:58:23,14.98324542,0.000251,70.002,317.5004,243.9484,116.1417,-9.395e-05,-1.214e-05,0.0,0 STARLINK-5467,1 55660U 23021AJ  24025.16554943 -.00001214  00000-0 -93950-4 0  9990,2 55660  70.0020 317.5004 0002510 243.9484 116.1417 14.98324542 52960,6950.21,96.107,573.819,570.33,0.0
55660.0,STARLINK-5467,PAYLOAD,2024-01-25 05:34:31,14.98324024,0.0002489,70.0018,317.3314,247.5418,112.5478,-9.7516e-05,-1.256e-05,0.0,0 STARLINK-5467,1 55660U 23021AJ  24025.23231021 -.00001256  00000-0 -97516-4 0  9995,2 55660  70.0018 317.3314 0002489 247.5418 112.5478 14.98324024 53278,6950.211,96.107,573.806,570.346,0.0
55660.0,STARLINK-5467,PAYLOAD,2024-01-25 19:59:43,14.98331488,0.0002596,70.0011,315.8156,260.6788,99.4078,-4.6843e-05,-6.52e-06,0.0,0 STARLINK-5467,1 55660U 23021AJ  24025.83314512 -.00000652  00000-0 -46843-4 0  9994,2 55660  70.0011 315.8156 0002596 260.6788  99.4078 14.98331488 53061,6950.188,96.107,573.858,570.249,0.0
55660.0,STARLINK-5467,PAYLOAD,2024-01-25 21:35:51,14.98331769,0.0002589,70.0012,315.6469,260.3612,99.7255,-4.0044e-05,-5.71e-06,0.0,0 STARLINK-5467,1 55660U 23021AJ  24025.89990462 -.00000571  00000-0 -40044-4 0  9991,2 55660  70.0012 315.6469 0002589 260.3612  99.7255 14.98331769 53378,6950.187,96.107,573.852,570.253,0.0
55660.0,STARLINK-5467,PAYLOAD,2024-01-26 05:36:31,14.98334855,0.0002524,70.0013,314.8054,257.2529,102.8348,5.3257e-06,-2.9e-07,0.0,0 STARLINK-5467,1 55660U 23021AJ  24026.23370076 -.00000029  00000-0  53257-5 0  9991,2 55660  70.0013 314.8054 0002524 257.2529 102.8348 14.98334855 53425,6950.178,96.107,573.797,570.289,0.0
55660.0,STARLINK-5467,PAYLOAD,2024-01-26 20:01:44,14.98324792,0.0002449,70.0014,313.2903,256.1334,103.9553,5.7284e-05,5.91e-06,0.0,0 STARLINK-5467,1 55660U 23021AJ  24026.83454521  .00000591  00000-0  57284-4 0  9991,2 55660  70.0014 313.2903 0002449 256.1334 103.9553 14.98324792 53216,6950.209,96.107,573.776,570.372,0.0
55660.0,STARLINK-5467,PAYLOAD,2024-01-27 04:02:24,14.98326647,0.0002454,70.0014,312.4487,261.247,98.8412,6.662e-05,7.02e-06,0.0,0 STARLINK-5467,1 55660U 23021AJ  24027.16834486  .00000702  00000-0  66620-4 0  9998,2 55660  70.0014 312.4487 0002454 261.2470  98.8412 14.98326647 53563,6950.203,96.107,573.774,570.363,0.0
55660.0,STARLINK-5467,PAYLOAD,2024-01-27 20:03:45,14.98332305,0.0002568,70.0015,310.766,260.5517,99.5352,2.0028e-05,1.46e-06,0.0,0 STARLINK-5467,1 55660U 23021AJ  24027.83594206  .00000146  00000-0  20028-4 0  9999,2 55660  70.0015 310.7660 0002568 260.5517  99.5352 14.98332305 53365,6950.186,96.107,573.836,570.266,0.0
55660.0,STARLINK-5467,PAYLOAD,2024-01-27 21:39:53,14.98331303,0.0002559,70.0014,310.5976,259.6139,100.4732,2.5768e-05,2.15e-06,0.0,0 STARLINK-5467,1 55660U 23021AJ  24027.90270226  .00000215  00000-0  25768-4 0  9993,2 55660  70.0014 310.5976 0002559 259.6139 100.4732 14.98331303 53676,6950.189,96.107,573.832,570.275,0.0
55660.0,STARLINK-5467,PAYLOAD,2024-01-28 04:04:25,14.98331535,0.0002505,70.0014,309.9241,256.7102,103.3777,-2.5174e-05,-3.93e-06,0.0,0 STARLINK-5467,1 55660U 23021AJ  24028.16974317 -.00000393  00000-0 -25174-4 0  9994,2 55660  70.0014 309.9241 0002505 256.7102 103.3777 14.98331535 53715,6950.188,96.107,573.794,570.312,0.0
55660.0,STARLINK-5467,PAYLOAD,2024-01-28 20:05:46,14.98328631,0.0002644,70.0008,308.2403,261.3246,98.7613,-3.3189e-05,-4.89e-06,0.0,0 STARLINK-5467,1 55660U 23021AJ  24028.83734513 -.00000489  00000-0 -33189-4 0  9991,2 55660  70.0008 308.2403 0002644 261.3246  98.7613 14.98328631 53512,6950.197,96.107,573.9,570.224,0.0
55660.0,STARLINK-5467,PAYLOAD,2024-01-28 21:41:54,14.98328316,0.0002659,70.0008,308.0719,261.4048,98.6809,-3.7128e-05,-5.36e-06,0.0,0 STARLINK-5467,1 55660U 23021AJ  24028.90410544 -.00000536  00000-0 -37128-4 0  9994,2 55660  70.0008 308.0719 0002659 261.4048  98.6809 14.98328316 53827,6950.198,96.107,573.911,570.215,0.0
55660.0,STARLINK-5467,PAYLOAD,2024-01-29 18:31:39,14.98330772,0.0002525,70.001,305.8836,252.5368,107.5515,1.506e-05,8.7e-07,0.0,0 STARLINK-5467,1 55660U 23021AJ  24029.77198145  .00000087  00000-0  15060-4 0  9990,2 55660  70.0010 305.8836 0002525 252.5368 107.5515 14.98330772 53950,6950.191,96.107,573.81,570.301,0.0
55660.0,STARLINK-5467,PAYLOAD,2024-01-30 04:08:27,14.98330705,0.0002532,70.001,304.8738,254.1757,105.9123,1.2047e-05,5.1e-07,0.0,0 STARLINK-5467,1 55660U 23021AJ  24030.17254140  .00000051  00000-0  12047-4 0  9997,2 55660  70.0010 304.8738 0002532 254.1757 105.9123 14.98330705 53715,6950.191,96.107,573.815,570.296,0.0
55660.0,STARLINK-5467,PAYLOAD,2024-01-30 21:45:56,14.98331137,0.0002593,70.0006,303.0226,255.9784,104.1086,2.8181e-05,2.43e-06,0.0,0 STARLINK-5467,1 55660U 23021AJ  24030.90689987  .00000243  00000-0  28181-4 0  9998,2 55660  70.0006 303.0226 0002593 255.9784 104.1086 14.98331137 54124,6950.189,96.107,573.857,570.252,0.0
55660.0,STARLINK-5467,PAYLOAD,2024-01-31 04:10:28,14.98330384,0.000261,70.0005,302.3492,258.1239,101.9628,1.6919e-05,1.09e-06,0.0,0 STARLINK-5467,1 55660U 23021AJ  24031.17394055  .00000109  00000-0  16919-4 0  9994,2 55660  70.0005 302.3492 0002610 258.1239 101.9628 14.98330384 53860,6950.192,96.107,573.871,570.243,0.0
55660.0,STARLINK-5467,PAYLOAD,2024-01-31 16:59:33,14.98330812,0.0002597,70.0006,301.0028,263.438,96.6483,-1.3929e-05,-2.59e-06,0.0,0 STARLINK-5467,1 55660U 23021AJ  24031.70802107 -.00000259  00000-0 -13929-4 0  9991,2 55660  70.0006 301.0028 0002597 263.4380  96.6483 14.98330812 54240,6950.19,96.107,573.86,570.25,0.0
55660.0,STARLINK-5467,PAYLOAD,2024-02-01 04:12:29,14.98328889,0.0002607,70.0003,299.8239,262.5064,97.5799,-3.0727e-05,-4.6e-06,0.0,0 STARLINK-5467,1 55660U 23021AJ  24032.17534264 -.00000460  00000-0 -30727-4 0  9998,2 55660  70.0003 299.8239 0002607 262.5064  97.5799 14.98328889 54012,6950.196,96.107,573.873,570.249,0.0
55660.0,STARLINK-5467,PAYLOAD,2024-02-02 02:38:22,14.98331248,0.0002521,70.0002,297.4665,263.8558,96.2314,1.6544e-05,1.04e-06,0.0,0 STARLINK-5467,1 55660U 23021AJ  24033.10997959  .00000104  00000-0  16544-4 0  9990,2 55660  70.0002 297.4665 0002521 263.8558  96.2314 14.98331248 54455,6950.189,96.107,573.806,570.302,0.0
55660.0,STARLINK-5467,PAYLOAD,2024-02-02 18:39:43,14.98327156,0.0002513,70.0002,295.7822,261.2011,98.8863,2.524e-06,-6.3e-07,0.0,0 STARLINK-5467,1 55660U 23021AJ  24033.77758232 -.00000063  00000-0  25240-5 0  9991,2 55660  70.0002 295.7822 0002513 261.2011  98.8863 14.98327156 54256,6950.202,96.107,573.813,570.32,0.0
